{"id":"399","name":"Earth ","centerId":"10","centerName":"Sun ","epoch":"2000-Jan-01 12:00:00.0000","physicalData":{"id":"399","name":"Earth ","table":{"meanRadius":6371010,"mass":5.97219e+24,"siderealRotRate":0.00007292115,"gravParameter":398600435.436,"obliquity":23.4392911}},"elementTable":{"eccentricity":0.01711862906746885,"periapsis":147102954684.3549,"inclination":0.000418108606546181,"longitudeOfAscendingNode":135.0807182572469,"argumentOfPeriapsis":326.7282188569271,"timeOfPeriapsis":2451546.403877782,"meanMotion":0.00001139983756894531,"meanAnomaly":358.6172562416435,"trueAnomaly":358.5688856532555,"semiMajorAxis":149665014552.8626,"apoapsis":152227074421.3704,"siderealOrbitPeriod":31579397.32235206},"vectorTable":{"position":[-26499033677.4305,144697296792.54932,-611149.4259536266],"velocity":[-29794.26007043741,-5469.2949397706025,0.1817836785027449],"range":147103726959.1841,"rangeRate":-12.73313936463491}}
